{
    "links": {
        "self": "http://www.neowsapp.com/rest/v1/neo/3547937?api_key=iIulBulltgU6a56xZRHN4H3l9WmuAYTsLGpBGhQ2"
    },
    "id": "3547937",
    "neo_reference_id": "3547937",
    "name": "(2010 TN4)",
    "designation": "2010 TN4",
    "nasa_jpl_url": "http://ssd.jpl.nasa.gov/sbdb.cgi?sstr=3547937",
    "absolute_magnitude_h": 27.5,
    "estimated_diameter": {
        "kilometers": {
            "estimated_diameter_min": 0.008405334,
            "estimated_diameter_max": 0.0187948982
        },
        "meters": {
            "estimated_diameter_min": 8.4053340207,
            "estimated_diameter_max": 18.7948982439
        },
        "miles": {
            "estimated_diameter_min": 0.0052228308,
            "estimated_diameter_max": 0.0116786047
        },
        "feet": {
            "estimated_diameter_min": 27.5765560686,
            "estimated_diameter_max": 61.6630539546
        }
    },
    "is_potentially_hazardous_asteroid": false,
    "close_approach_data": [
        {
            "close_approach_date": "2010-09-30",
            "close_approach_date_full": "2010-Sep-30 10:52",
            "epoch_date_close_approach": 1285843920000,
            "relative_velocity": {
                "kilometers_per_second": "7.6734018816",
                "kilometers_per_hour": "27624.2467738183",
                "miles_per_hour": "17164.6326689873"
            },
            "miss_distance": {
                "astronomical": "0.0095772792",
                "lunar": "3.7255616088",
                "kilometers": "1432740.568715304",
                "miles": "890263.7073230352"
            },
            "orbiting_body": "Earth"
        },
        {
            "close_approach_date": "2010-09-30",
            "close_approach_date_full": "2010-Sep-30 18:53",
            "epoch_date_close_approach": 1285872780000,
            "relative_velocity": {
                "kilometers_per_second": "8.4182622879",
                "kilometers_per_hour": "30305.7442365932",
                "miles_per_hour": "18830.8109118987"
            },
            "miss_distance": {
                "astronomical": "0.0096857589",
                "lunar": "3.7677602121",
                "kilometers": "1448968.900773543",
                "miles": "900347.5252711734"
            },
            "orbiting_body": "Moon"
        },
        {
            "close_approach_date": "2012-08-18",
            "close_approach_date_full": "2012-Aug-18 15:53",
            "epoch_date_close_approach": 1345305180000,
            "relative_velocity": {
                "kilometers_per_second": "7.76481897",
                "kilometers_per_hour": "27953.3482920903",
                "miles_per_hour": "17369.1235540491"
            },
            "miss_distance": {
                "astronomical": "0.0667132421",
                "lunar": "25.9514511769",
                "kilometers": "9980158.918954327",
                "miles": "6201383.1902786326"
            },
            "orbiting_body": "Mars"
        }
    ],
    "orbital_data": {
        "orbit_id": "9",
        "orbit_determination_date": "2017-04-06 08:56:27",
        "first_observation_date": "2010-10-02",
        "last_observation_date": "2010-10-09",
        "data_arc_in_days": 7,
        "observations_used": 23,
        "orbit_uncertainty": "8",
        "minimum_orbit_intersection": ".00960122",
        "jupiter_tisserand_invariant": "4.052",
        "epoch_osculation": "2455474.5",
        "eccentricity": ".4349974574322557",
        "semi_major_axis": "1.724665885274889",
        "inclination": "3.029741156020344",
        "ascending_node_longitude": "16.90731714160451",
        "orbital_period": "827.286402514213",
        "perihelion_distance": ".974440610260162",
        "perihelion_argument": "324.4238057972016",
        "aphelion_distance": "2.474891160289617",
        "perihelion_time": "2455448.594125630696",
        "mean_anomaly": "11.27313919895984",
        "mean_motion": ".4351576417863523",
        "equinox": "J2000",
        "orbit_class": {
            "orbit_class_type": "APO",
            "orbit_class_description": "Near-Earth asteroid orbits which cross the Earth’s orbit similar to that of 1862 Apollo",
            "orbit_class_range": "a (semi-major axis) > 1.0 AU; q (perihelion) < 1.017 AU"
        }
    },
    "is_sentry_object": false
}